ORBCOMM FM103           
1 40091U 14040F   24260.64147809  .00002708  00000+0  63255-3 0  9996
2 40091  47.0037 228.7267 0001183  96.9149 263.1871 14.57068895524194
ORBCOMM FM114           
1 41179U 15081A   24261.35625795  .00005501  00000+0  12470-2 0  9990
2 41179  47.0014 134.5558 0002435 187.2311 172.8539 14.57034063464718
ORBCOMM FM119           
1 41180U 15081B   24260.71533119  .00002664  00000+0  62308-3 0  9992
2 41180  47.0004  46.8083 0002141 244.0729 115.9936 14.57049240465821
ORBCOMM FM105           
1 41181U 15081C   24260.75271418  .00001420  00000+0  45122-3 0  9992
2 41181  47.0029  25.4621 0002041 197.6984 162.3826 14.44643466461203
ORBCOMM FM110           
1 41182U 15081D   24261.33236021  .00008535  00000+0  19133-2 0  9995
2 41182  47.0004 134.0525 0001426 311.9417  48.1346 14.57034512464712
ORBCOMM FM118           
1 41183U 15081E   24261.37907603  .00005533  00000+0  12540-2 0  9991
2 41183  47.0026 134.1741 0001829 318.1076  41.9669 14.57033574464722
ORBCOMM FM112           
1 41184U 15081F   24261.51538470  .00005611  00000+0  12713-2 0  9999
2 41184  46.9992  42.2334 0002462 232.2723 127.7939 14.57023352465939
ORBCOMM FM113           
1 41185U 15081G   24260.66961375  .00003096  00000+0  71821-3 0  9990
2 41185  47.0006  46.5071 0002254 242.9523 117.1132 14.57032057465747
